MERAH PUTIH 2           
1 58995U 24035A   26095.57640402 -.00000356  00000+0  00000+0 0  9993
2 58995   0.0139 137.8155 0001402 273.7917 102.7279  1.00272209  7866
TJS-11                  
1 59020U 24037A   26095.58098022 -.00000369  00000+0  00000+0 0  9995
2 59020   4.2966 326.1781 0006014  68.1355 128.9992  1.00268477  7857
HULIANWAN GAOGUI-01 (H*)
1 59069U 24040A   26095.31989275  .00000157  00000+0  00000+0 0  9996
2 59069   0.0667 318.0921 0004062  59.7274 324.5831  1.00270994  6598
EUTELSAT 36D            
1 59346U 24059A   26095.53812500  .00000157  00000+0  00000+0 0  9994
2 59346   0.0184 168.3474 0000638 277.5834 337.4999  1.00272114  7412
PAKSAT-MM1              
1 59915U 24104A   26095.53864501  .00000155  00000+0  00000+0 0  9993
2 59915   0.0054 217.1083 0002506 157.6810  51.1621  1.00271853  6798
EKRAN 2 DEB             
1 59987U 77092N   26087.85090471 -.00000348  00000+0  00000+0 0  9994
2 59987   4.3328 275.0243 0011951 222.1959 100.9366  1.00179511 62301
ASTRA 1P (SES-24)       
1 60086U 24115A   26095.53483166  .00000121  00000+0  00000+0 0  9993
2 60086   0.0666  26.6345 0002866 289.7503  89.1831  1.00270387  6466
GOES 19                 
1 60133U 24119A   26095.51619824 -.00000247  00000+0  00000+0 0  9990
2 60133   0.0443  41.5874 0001032  22.6159 240.2467  1.00271467  6230
ZHONGXING-3A            
1 60179U 24122A   26095.47988021 -.00000312  00000+0  00000+0 0  9990
2 60179   0.0447  20.5178 0003054  73.0612  14.5412  1.00271164  6582
TURKSAT 6A              
1 60233U 24127A   26095.53942501  .00000148  00000+0  00000+0 0  9992
2 60233   0.0352 211.2565 0001392 127.8226  90.9951  1.00269797  6281
HULIANWAN GAOGUI-02 (H*)
1 60327U 24135A   26095.25133856 -.00000172  00000+0  00000+0 0  9997
2 60327   0.0505  18.6098 0008725 337.1857  81.2994  1.00273209  6764
ZHONGXING-4A            
1 60606U 24151A   26095.52475455 -.00000362  00000+0  00000+0 0  9990
2 60606   1.5025 271.6303 0001204 106.1994 123.1274  1.00273009  6022
HULIANWAN GAOGUI-03 (H*)
1 61503U 24181A   26094.01837918 -.00000242  00000+0  00000+0 0  9996
2 61503   0.0528  21.6745 0000740 110.0044 350.1418  1.00274413  6086
DSN-3 (KIRAMEKI-3)      
1 61733U 24198A   26095.56086498  .00000000  00000+0  00000+0 0  9990
2 61733   0.0164 201.7014 0000924 156.8374 181.2949  1.00270725  5190
KOREASAT 6A             
1 61910U 24206A   26095.57792394 -.00000360  00000+0  00000+0 0  9997
2 61910   0.0095 191.1586 0001104 184.2377 142.5337  1.00272324  5115
INTELSAT 33E DEB        
1 61994U 16053L   26095.28486255 -.00000145  00000+0  00000+0 0  9995
2 61994   1.3986  86.4910 0025377 210.9910 149.5835  1.00489207  5362
INTELSAT 33E DEB        
1 61998U 16053Q   26094.77420499 -.00000183  00000+0  00000+0 0  9992
2 61998   1.3692  83.9852 0029449 282.6309  77.7921  1.00398317  5368
