[{"OBJECT_NAME":"MERAH PUTIH 2","OBJECT_ID":"2024-035A","EPOCH":"2026-04-05T13:50:01.307328","MEAN_MOTION":1.00272209,"ECCENTRICITY":0.00014028,"INCLINATION":0.0139,"RA_OF_ASC_NODE":137.8155,"ARG_OF_PERICENTER":273.7917,"MEAN_ANOMALY":102.7279,"EPHEMERIS_TYPE":0,"CLASSIFICATION_TYPE":"U","NORAD_CAT_ID":58995,"ELEMENT_SET_NO":999,"REV_AT_EPOCH":786,"BSTAR":0,"MEAN_MOTION_DOT":-3.56e-6,"MEAN_MOTION_DDOT":0},{"OBJECT_NAME":"TJS-11","OBJECT_ID":"2024-037A","EPOCH":"2026-04-05T13:56:36.691008","MEAN_MOTION":1.00268477,"ECCENTRICITY":0.0006014,"INCLINATION":4.2966,"RA_OF_ASC_NODE":326.1781,"ARG_OF_PERICENTER":68.1355,"MEAN_ANOMALY":128.9992,"EPHEMERIS_TYPE":0,"CLASSIFICATION_TYPE":"U","NORAD_CAT_ID":59020,"ELEMENT_SET_NO":999,"REV_AT_EPOCH":785,"BSTAR":0,"MEAN_MOTION_DOT":-3.69e-6,"MEAN_MOTION_DDOT":0},{"OBJECT_NAME":"HULIANWAN GAOGUI-01 (HG-01)","OBJECT_ID":"2024-040A","EPOCH":"2026-04-05T07:40:38.733600","MEAN_MOTION":1.00270994,"ECCENTRICITY":0.0004062,"INCLINATION":0.0667,"RA_OF_ASC_NODE":318.0921,"ARG_OF_PERICENTER":59.7274,"MEAN_ANOMALY":324.5831,"EPHEMERIS_TYPE":0,"CLASSIFICATION_TYPE":"U","NORAD_CAT_ID":59069,"ELEMENT_SET_NO":999,"REV_AT_EPOCH":659,"BSTAR":0,"MEAN_MOTION_DOT":1.57e-6,"MEAN_MOTION_DDOT":0},{"OBJECT_NAME":"EUTELSAT 36D","OBJECT_ID":"2024-059A","EPOCH":"2026-04-05T12:54:54.000000","MEAN_MOTION":1.00272114,"ECCENTRICITY":6.385e-5,"INCLINATION":0.0184,"RA_OF_ASC_NODE":168.3474,"ARG_OF_PERICENTER":277.5834,"MEAN_ANOMALY":337.4999,"EPHEMERIS_TYPE":0,"CLASSIFICATION_TYPE":"U","NORAD_CAT_ID":59346,"ELEMENT_SET_NO":999,"REV_AT_EPOCH":741,"BSTAR":0,"MEAN_MOTION_DOT":1.57e-6,"MEAN_MOTION_DDOT":0},{"OBJECT_NAME":"PAKSAT-MM1","OBJECT_ID":"2024-104A","EPOCH":"2026-04-05T12:55:38.928864","MEAN_MOTION":1.00271853,"ECCENTRICITY":0.00025068,"INCLINATION":0.0054,"RA_OF_ASC_NODE":217.1083,"ARG_OF_PERICENTER":157.681,"MEAN_ANOMALY":51.1621,"EPHEMERIS_TYPE":0,"CLASSIFICATION_TYPE":"U","NORAD_CAT_ID":59915,"ELEMENT_SET_NO":999,"REV_AT_EPOCH":679,"BSTAR":0,"MEAN_MOTION_DOT":1.55e-6,"MEAN_MOTION_DDOT":0},{"OBJECT_NAME":"EKRAN 2 DEB","OBJECT_ID":"1977-092N","EPOCH":"2026-03-28T20:25:18.166944","MEAN_MOTION":1.00179511,"ECCENTRICITY":0.0011951,"INCLINATION":4.3328,"RA_OF_ASC_NODE":275.0243,"ARG_OF_PERICENTER":222.1959,"MEAN_ANOMALY":100.9366,"EPHEMERIS_TYPE":0,"CLASSIFICATION_TYPE":"U","NORAD_CAT_ID":59987,"ELEMENT_SET_NO":999,"REV_AT_EPOCH":6230,"BSTAR":0,"MEAN_MOTION_DOT":-3.48e-6,"MEAN_MOTION_DDOT":0},{"OBJECT_NAME":"ASTRA 1P (SES-24)","OBJECT_ID":"2024-115A","EPOCH":"2026-04-05T12:50:09.455424","MEAN_MOTION":1.00270387,"ECCENTRICITY":0.0002866,"INCLINATION":0.0666,"RA_OF_ASC_NODE":26.6345,"ARG_OF_PERICENTER":289.7503,"MEAN_ANOMALY":89.1831,"EPHEMERIS_TYPE":0,"CLASSIFICATION_TYPE":"U","NORAD_CAT_ID":60086,"ELEMENT_SET_NO":999,"REV_AT_EPOCH":646,"BSTAR":0,"MEAN_MOTION_DOT":1.21e-6,"MEAN_MOTION_DDOT":0},{"OBJECT_NAME":"GOES 19","OBJECT_ID":"2024-119A","EPOCH":"2026-04-05T12:23:19.527936","MEAN_MOTION":1.00271467,"ECCENTRICITY":0.00010326,"INCLINATION":0.0443,"RA_OF_ASC_NODE":41.5874,"ARG_OF_PERICENTER":22.6159,"MEAN_ANOMALY":240.2467,"EPHEMERIS_TYPE":0,"CLASSIFICATION_TYPE":"U","NORAD_CAT_ID":60133,"ELEMENT_SET_NO":999,"REV_AT_EPOCH":623,"BSTAR":0,"MEAN_MOTION_DOT":-2.47e-6,"MEAN_MOTION_DDOT":0},{"OBJECT_NAME":"ZHONGXING-3A","OBJECT_ID":"2024-122A","EPOCH":"2026-04-05T11:31:01.650144","MEAN_MOTION":1.00271164,"ECCENTRICITY":0.0003054,"INCLINATION":0.0447,"RA_OF_ASC_NODE":20.5178,"ARG_OF_PERICENTER":73.0612,"MEAN_ANOMALY":14.5412,"EPHEMERIS_TYPE":0,"CLASSIFICATION_TYPE":"U","NORAD_CAT_ID":60179,"ELEMENT_SET_NO":999,"REV_AT_EPOCH":658,"BSTAR":0,"MEAN_MOTION_DOT":-3.12e-6,"MEAN_MOTION_DDOT":0},{"OBJECT_NAME":"TURKSAT 6A","OBJECT_ID":"2024-127A","EPOCH":"2026-04-05T12:56:46.320864","MEAN_MOTION":1.00269797,"ECCENTRICITY":0.00013925,"INCLINATION":0.0352,"RA_OF_ASC_NODE":211.2565,"ARG_OF_PERICENTER":127.8226,"MEAN_ANOMALY":90.9951,"EPHEMERIS_TYPE":0,"CLASSIFICATION_TYPE":"U","NORAD_CAT_ID":60233,"ELEMENT_SET_NO":999,"REV_AT_EPOCH":628,"BSTAR":0,"MEAN_MOTION_DOT":1.48e-6,"MEAN_MOTION_DDOT":0},{"OBJECT_NAME":"HULIANWAN GAOGUI-02 (HG-02)","OBJECT_ID":"2024-135A","EPOCH":"2026-04-05T06:01:55.651584","MEAN_MOTION":1.00273209,"ECCENTRICITY":0.0008725,"INCLINATION":0.0505,"RA_OF_ASC_NODE":18.6098,"ARG_OF_PERICENTER":337.1857,"MEAN_ANOMALY":81.2994,"EPHEMERIS_TYPE":0,"CLASSIFICATION_TYPE":"U","NORAD_CAT_ID":60327,"ELEMENT_SET_NO":999,"REV_AT_EPOCH":676,"BSTAR":0,"MEAN_MOTION_DOT":-1.72e-6,"MEAN_MOTION_DDOT":0},{"OBJECT_NAME":"ZHONGXING-4A","OBJECT_ID":"2024-151A","EPOCH":"2026-04-05T12:35:38.793120","MEAN_MOTION":1.00273009,"ECCENTRICITY":0.00012045,"INCLINATION":1.5025,"RA_OF_ASC_NODE":271.6303,"ARG_OF_PERICENTER":106.1994,"MEAN_ANOMALY":123.1274,"EPHEMERIS_TYPE":0,"CLASSIFICATION_TYPE":"U","NORAD_CAT_ID":60606,"ELEMENT_SET_NO":999,"REV_AT_EPOCH":602,"BSTAR":0,"MEAN_MOTION_DOT":-3.62e-6,"MEAN_MOTION_DDOT":0},{"OBJECT_NAME":"HULIANWAN GAOGUI-03 (HG-03)","OBJECT_ID":"2024-181A","EPOCH":"2026-04-04T00:26:27.961152","MEAN_MOTION":1.00274413,"ECCENTRICITY":7.408e-5,"INCLINATION":0.0528,"RA_OF_ASC_NODE":21.6745,"ARG_OF_PERICENTER":110.0044,"MEAN_ANOMALY":350.1418,"EPHEMERIS_TYPE":0,"CLASSIFICATION_TYPE":"U","NORAD_CAT_ID":61503,"ELEMENT_SET_NO":999,"REV_AT_EPOCH":608,"BSTAR":0,"MEAN_MOTION_DOT":-2.42e-6,"MEAN_MOTION_DDOT":0},{"OBJECT_NAME":"DSN-3 (KIRAMEKI-3)","OBJECT_ID":"2024-198A","EPOCH":"2026-04-05T13:27:38.734272","MEAN_MOTION":1.00270725,"ECCENTRICITY":9.247e-5,"INCLINATION":0.0164,"RA_OF_ASC_NODE":201.7014,"ARG_OF_PERICENTER":156.8374,"MEAN_ANOMALY":181.2949,"EPHEMERIS_TYPE":0,"CLASSIFICATION_TYPE":"U","NORAD_CAT_ID":61733,"ELEMENT_SET_NO":999,"REV_AT_EPOCH":519,"BSTAR":0,"MEAN_MOTION_DOT":0,"MEAN_MOTION_DDOT":0},{"OBJECT_NAME":"KOREASAT 6A","OBJECT_ID":"2024-206A","EPOCH":"2026-04-05T13:52:12.628416","MEAN_MOTION":1.00272324,"ECCENTRICITY":0.00011043,"INCLINATION":0.0095,"RA_OF_ASC_NODE":191.1586,"ARG_OF_PERICENTER":184.2377,"MEAN_ANOMALY":142.5337,"EPHEMERIS_TYPE":0,"CLASSIFICATION_TYPE":"U","NORAD_CAT_ID":61910,"ELEMENT_SET_NO":999,"REV_AT_EPOCH":511,"BSTAR":0,"MEAN_MOTION_DOT":-3.6e-6,"MEAN_MOTION_DDOT":0},{"OBJECT_NAME":"INTELSAT 33E DEB","OBJECT_ID":"2016-053L","EPOCH":"2026-04-05T06:50:12.124320","MEAN_MOTION":1.00489207,"ECCENTRICITY":0.00253773,"INCLINATION":1.3986,"RA_OF_ASC_NODE":86.491,"ARG_OF_PERICENTER":210.991,"MEAN_ANOMALY":149.5835,"EPHEMERIS_TYPE":0,"CLASSIFICATION_TYPE":"U","NORAD_CAT_ID":61994,"ELEMENT_SET_NO":999,"REV_AT_EPOCH":536,"BSTAR":0,"MEAN_MOTION_DOT":-1.45e-6,"MEAN_MOTION_DDOT":0},{"OBJECT_NAME":"INTELSAT 33E DEB","OBJECT_ID":"2016-053Q","EPOCH":"2026-04-04T18:34:51.311136","MEAN_MOTION":1.00398317,"ECCENTRICITY":0.0029449,"INCLINATION":1.3692,"RA_OF_ASC_NODE":83.9852,"ARG_OF_PERICENTER":282.6309,"MEAN_ANOMALY":77.7921,"EPHEMERIS_TYPE":0,"CLASSIFICATION_TYPE":"U","NORAD_CAT_ID":61998,"ELEMENT_SET_NO":999,"REV_AT_EPOCH":536,"BSTAR":0,"MEAN_MOTION_DOT":-1.83e-6,"MEAN_MOTION_DDOT":0}]
